SatCatId,ObjectName,LaunchYear,OrbitalPeriod,LaunchMass,StatusCode,Inclination,Status,UcsData,OrbitClassEstimated,LaunchSiteCountry,Owner,UseType,Purpose,LaunchVehicleClass,TLE1,TLE2,MeanMotion,Eccentricity,OrbitClass
48213,ONEWEB-0180,2021,109.55,148.0,+,87.9,Active,1,LEO,Russia,UK,Commercial,Communications,Soyuz,1 48213U 21031D   23276.60280256 -.00000042  00000+0 -14714-3 0  9991,2 48213  87.8976 126.2760 0001420  77.5013 282.6275 13.14503864118477,13.14503864,0.000142,LEO
48214,ONEWEB-0218,2021,109.55,148.0,+,87.9,Active,1,LEO,Russia,UK,Commercial,Communications,Soyuz,1 48214U 21031E   23276.62393227 -.00000210  00000+0 -60205-3 0  9990,2 48214  87.8974 126.2734 0002167  46.5454 313.5855 13.14499648118631,13.14499648,0.0002167,LEO
48215,ONEWEB-0209,2021,109.55,148.0,+,87.9,Active,1,LEO,Russia,UK,Commercial,Communications,Soyuz,1 48215U 21031F   23276.61336241 -.00000439  00000+0 -12179-2 0  9992,2 48215  87.8966 126.3147 0001569  81.3956 278.7352 13.14502928118631,13.14502928,0.0001569,LEO
48216,ONEWEB-0198,2021,109.55,148.0,+,87.9,Active,1,LEO,Russia,UK,Commercial,Communications,Soyuz,1 48216U 21031G   23276.59857503 -.00000008  00000+0 -56832-4 0  9997,2 48216  87.8967 126.3253 0001586  62.4136 297.7155 13.14504742118740,13.14504742,0.0001586,LEO
48217,ONEWEB-0189,2021,109.55,148.0,+,87.9,Active,1,LEO,Russia,UK,Commercial,Communications,Soyuz,1 48217U 21031H   23276.61126364 -.00000225  00000+0 -64117-3 0  9990,2 48217  87.8963 126.3010 0001473  61.4992 298.6286 13.14500790118487,13.1450079,0.0001473,LEO
48218,ONEWEB-0196,2021,109.55,148.0,+,87.9,Active,1,LEO,Russia,UK,Commercial,Communications,Soyuz,1 48218U 21031J   23276.59011141  .00000140  00000+0  34306-3 0  9995,2 48218  87.8967 126.3007 0001691  75.0939 285.0378 13.14500708118483,13.14500708,0.0001691,LEO
48219,ONEWEB-0183,2021,109.55,148.0,+,87.9,Active,1,LEO,Russia,UK,Commercial,Communications,Soyuz,1 48219U 21031K   23276.56263130  .00000176  00000+0  44114-3 0  9997,2 48219  87.8965 126.3261 0001534  82.2755 277.8549 13.14503343118573,13.14503343,0.0001534,LEO
48220,ONEWEB-0185,2021,109.55,148.0,+,87.9,Active,1,LEO,Russia,UK,Commercial,Communications,Soyuz,1 48220U 21031L   23276.59122512  .00000113  00000+0  27095-3 0  9990,2 48220  87.8966 126.2949 0001406  82.0016 278.1274 13.14501908118501,13.14501908,0.0001406,LEO
48221,ONEWEB-0187,2021,109.55,148.0,+,87.9,Active,1,LEO,Russia,UK,Commercial,Communications,Soyuz,1 48221U 21031M   23276.56580976  .00000119  00000+0  28647-3 0  9990,2 48221  87.8964 126.3290 0001543  79.1020 281.0283 13.14503984118514,13.14503984,0.0001543,LEO
48222,ONEWEB-0192,2021,109.55,148.0,+,87.9,Active,1,LEO,Russia,UK,Commercial,Communications,Soyuz,1 48222U 21031N   23276.61549112 -.00000161  00000+0 -46959-3 0  9999,2 48222  87.9008 126.2822 0001692  74.2699 285.8617 13.14501123118435,13.14501123,0.0001692,LEO
48223,ONEWEB-0219,2021,109.55,148.0,+,87.9,Active,1,LEO,Russia,UK,Commercial,Communications,Soyuz,1 48223U 21031P   23276.59645711  .00000060  00000+0  12737-3 0  9992,2 48223  87.8964 126.2977 0001455  78.7133 281.4160 13.14503762118634,13.14503762,0.0001455,LEO
48224,ONEWEB-0202,2021,109.55,148.0,+,87.9,Active,1,LEO,Russia,UK,Commercial,Communications,Soyuz,1 48224U 21031Q   23276.57531554  .00000247  00000+0  63189-3 0  9994,2 48224  87.8964 126.3220 0001787  44.3530 315.7743 13.14504858118618,13.14504858,0.0001787,LEO
48225,ONEWEB-0204,2021,109.55,148.0,+,87.9,Active,1,LEO,Russia,UK,Commercial,Communications,Soyuz,1 48225U 21031R   23276.60928260 -.00000122  00000+0 -36487-3 0  9998,2 48225  87.8966 126.3274 0001803  98.7692 261.3642 13.14500826118515,13.14500826,0.0001803,LEO
48226,ONEWEB-0205,2021,109.55,148.0,+,87.9,Active,1,LEO,Russia,UK,Commercial,Communications,Soyuz,1 48226U 21031S   23276.58589171  .00001405  00000+0  37551-2 0  9995,2 48226  87.8968 126.3016 0001411  72.6993 287.4291 13.14512218118520,13.14512218,0.0001411,LEO
48227,ONEWEB-0206,2021,109.55,148.0,+,87.9,Active,1,LEO,Russia,UK,Commercial,Communications,Soyuz,1 48227U 21031T   23276.55839791  .00000013  00000+0  87661-6 0  9994,2 48227  87.8972 126.2927 0001390  83.8980 276.2308 13.14503955118479,13.14503955,0.000139,LEO
48228,ONEWEB-0182,2021,109.55,148.0,+,87.9,Active,1,LEO,Russia,UK,Commercial,Communications,Soyuz,1 48228U 21031U   23276.55204565 -.00000071  00000+0 -22472-3 0  9992,2 48228  87.8970 126.3169 0001491  82.6583 277.4716 13.14505485118684,13.14505485,0.0001491,LEO
48229,ONEWEB-0186,2021,109.55,148.0,+,87.9,Active,1,LEO,Russia,UK,Commercial,Communications,Soyuz,1 48229U 21031V   23276.56474984  .00000138  00000+0  33750-3 0  9991,2 48229  87.8964 126.2798 0001580  77.0484 283.0822 13.14502334118638,13.14502334,0.000158,LEO
48230,ONEWEB-0181,2021,109.55,148.0,+,87.9,Active,1,LEO,Russia,UK,Commercial,Communications,Soyuz,1 48230U 21031W   23276.61760248 -.00000204  00000+0 -58387-3 0  9999,2 48230  87.8967 126.3409 0001676  75.3301 284.8015 13.14501885118495,13.14501885,0.0001676,LEO
48231,ONEWEB-0188,2021,109.55,148.0,+,87.9,Active,1,LEO,Russia,UK,Commercial,Communications,Soyuz,1 48231U 21031X   23276.58166599  .00000227  00000+0  57823-3 0  9992,2 48231  87.8966 126.3477 0001522  80.7135 279.4166 13.14501752118394,13.14501752,0.0001522,LEO
48232,ONEWEB-0220,2021,109.55,148.0,+,87.9,Active,1,LEO,Russia,UK,Commercial,Communications,Soyuz,1 48232U 21031Y   23276.61971782 -.00000182  00000+0 -52407-3 0  9990,2 48232  87.8971 126.3085 0001293  78.0766 282.0509 13.14505258118667,13.14505258,0.0001293,LEO
48233,ONEWEB-0165,2021,109.55,148.0,+,87.9,Active,1,LEO,Russia,UK,Commercial,Communications,Soyuz,1 48233U 21031Z   23276.57320944  .00000360  00000+0  93567-3 0  9992,2 48233  87.8964 126.3297 0001521  76.2650 283.8649 13.14503048118615,13.14503048,0.0001521,LEO
48234,ONEWEB-0199,2021,109.55,148.0,+,87.9,Active,1,LEO,Russia,UK,Commercial,Communications,Soyuz,1 48234U 21031AA  23276.55627688  .00000025  00000+0  34053-4 0  9990,2 48234  87.8963 126.3047 0001562  76.5611 283.5693 13.14505855118516,13.14505855,0.0001562,LEO
48235,ONEWEB-0203,2021,109.55,148.0,+,87.9,Active,1,LEO,Russia,UK,Commercial,Communications,Soyuz,1 48235U 21031AB  23276.62181914 -.00000528  00000+0 -14576-2 0  9992,2 48235  87.8966 126.2904 0002016  77.1484 282.9871 13.14502569118533,13.14502569,0.0002016,LEO
48236,ONEWEB-0197,2021,109.55,148.0,+,87.9,Active,1,LEO,Russia,UK,Commercial,Communications,Soyuz,1 48236U 21031AC  23276.60900924 -.00000125  00000+0 -37038-3 0  9993,2 48236  87.8963 126.3018 0001637  89.5524 270.5793 13.14502734118448,13.14502734,0.0001637,LEO
48237,ONEWEB-0194,2021,109.55,148.0,+,87.9,Active,1,LEO,Russia,UK,Commercial,Communications,Soyuz,1 48237U 21031AD  23276.57743793  .00000211  00000+0  53586-3 0  9999,2 48237  87.8965 126.2977 0002061  80.2580 279.8782 13.14502556118617,13.14502556,0.0002061,LEO
48238,ONEWEB-0193,2021,109.55,148.0,+,87.9,Active,1,LEO,Russia,UK,Commercial,Communications,Soyuz,1 48238U 21031AE  23276.59433824 -.00000022  00000+0 -93883-4 0  9990,2 48238  87.8966 126.3037 0001709  73.4393 286.6925 13.14500833118566,13.14500833,0.0001709,LEO
48239,ONEWEB-0191,2021,109.55,148.0,+,87.9,Active,1,LEO,Russia,UK,Commercial,Communications,Soyuz,1 48239U 21031AF  23276.60490716 -.00000155  00000+0 -45235-3 0  9990,2 48239  87.8976 126.2825 0001780  77.5455 282.5874 13.14499665118428,13.14499665,0.000178,LEO
48240,ONEWEB-0195,2021,109.55,148.0,+,87.9,Active,1,LEO,Russia,UK,Commercial,Communications,Soyuz,1 48240U 21031AG  23276.58273180  .00000206  00000+0  52163-3 0  9996,2 48240  87.8973 126.2876 0001489  66.5109 293.6177 13.14503335118400,13.14503335,0.0001489,LEO
48241,ONEWEB-0201,2021,109.55,148.0,+,87.9,Active,1,LEO,Russia,UK,Commercial,Communications,Soyuz,1 48241U 21031AH  23276.57850509  .00000265  00000+0  68110-3 0  9996,2 48241  87.8966 126.3264 0001572  79.8175 280.3132 13.14503283118639,13.14503283,0.0001572,LEO
48242,ONEWEB-0207,2021,109.55,148.0,+,87.9,Active,1,LEO,Russia,UK,Commercial,Communications,Soyuz,1 48242U 21031AJ  23276.55310111 -.00000040  00000+0 -14345-3 0  9999,2 48242  87.8965 126.2991 0001504  87.6386 272.4916 13.14505386118549,13.14505386,0.0001504,LEO
48243,ONEWEB-0208,2021,109.55,148.0,+,87.9,Active,1,LEO,Russia,UK,Commercial,Communications,Soyuz,1 48243U 21031AK  23276.60703311 -.00000082  00000+0 -25525-3 0  9992,2 48243  87.8965 126.3047 0001560  71.8048 288.3251 13.14505118118568,13.14505118,0.000156,LEO
48244,ONEWEB-0200,2021,109.55,148.0,+,87.9,Active,1,LEO,Russia,UK,Commercial,Communications,Soyuz,1 48244U 21031AL  23276.57108728  .00000226  00000+0  57592-3 0  9997,2 48244  87.8973 126.3014 0001532  71.1442 288.9853 13.14500725118486,13.14500725,0.0001532,LEO
48245,ONEWEB-0217,2021,109.55,148.0,+,87.9,Active,1,LEO,Russia,UK,Commercial,Communications,Soyuz,1 48245U 21031AM  23276.58799716  .00000176  00000+0  43969-3 0  9999,2 48245  87.8976 126.2831 0001579  66.1570 293.9725 13.14500263118439,13.14500263,0.0001579,LEO
48268,PLEIADES NEO 3,2021,97.19,920.0,+,97.9,Active,1,LEO,French Guiana,France,Commercial,Earth Observation,Vega,1 48268U 21034A   23276.59080724  .00002394  00000+0  31073-3 0  9997,2 48268  97.8957 349.5301 0001298  92.2870 267.8492 14.81681290131416,14.8168129,0.0001298,LEO
48269,LEMUR-2-AMANDA-SVANTE,2021,96.42,10.0,+,97.7,Active,1,LEO,French Guiana,USA,Commercial,Earth Observation,Vega,1 48269U 21034B   23276.45498458  .00010451  00000+0  99849-3 0  9998,2 48269  97.6957 341.8065 0001880 325.7159  34.3939 14.93445024131967,14.93445024,0.000188,LEO
48270,AII-BRAVO,2021,96.66,9.0,+,97.69,Active,1,LEO,French Guiana,Lithuania,Commercial,Communications,Vega,1 48270U 21034C   23276.46899589  .00005883  00000+0  61957-3 0  9993,2 48270  97.6928 339.9560 0002557 332.5963  27.5119 14.89726959131863,14.89726959,0.0002557,LEO
